{
  "type": "FeatureCollection",
  "features": [
    {
      "type": "Feature",
      "properties": {
        "state_id": "IN-TN",
        "state_name": "Tamil Nadu",
        "centroid": [
          78.6569,
          11.1271
        ],
        "temperature": 38.6,
        "heat_index": 45.2,
        "grid_stress": 72,
        "compound_risk": 79,
        "vulnerability": 68
      },
      "geometry": {
        "type": "Polygon",
        "coordinates": [
          [
            [
              76.2,
              11.5
            ],
            [
              77.5,
              12.8
            ],
            [
              79.2,
              13.5
            ],
            [
              80.3,
              13.1
            ],
            [
              79.8,
              10.3
            ],
            [
              79.3,
              9.2
            ],
            [
              78.2,
              8.8
            ],
            [
              77.5,
              8.1
            ],
            [
              77.2,
              8.4
            ],
            [
              76.9,
              10.1
            ],
            [
              76.2,
              11.5
            ]
          ]
        ]
      }
    },
    {
      "type": "Feature",
      "properties": {
        "state_id": "IN-KL",
        "state_name": "Kerala",
        "centroid": [
          76.2711,
          10.8505
        ],
        "temperature": 34.2,
        "heat_index": 40.1,
        "grid_stress": 55,
        "compound_risk": 52,
        "vulnerability": 45
      },
      "geometry": {
        "type": "Polygon",
        "coordinates": [
          [
            [
              75,
              12.8
            ],
            [
              76.2,
              11.5
            ],
            [
              76.9,
              10.1
            ],
            [
              77.2,
              8.4
            ],
            [
              76.8,
              8.2
            ],
            [
              75.8,
              11
            ],
            [
              75,
              12.8
            ]
          ]
        ]
      }
    },
    {
      "type": "Feature",
      "properties": {
        "state_id": "IN-KA",
        "state_name": "Karnataka",
        "centroid": [
          75.7139,
          15.3173
        ],
        "temperature": 36.8,
        "heat_index": 42,
        "grid_stress": 68,
        "compound_risk": 71,
        "vulnerability": 60
      },
      "geometry": {
        "type": "Polygon",
        "coordinates": [
          [
            [
              74.1,
              15
            ],
            [
              75.1,
              16.5
            ],
            [
              77.5,
              18.4
            ],
            [
              77.6,
              17.2
            ],
            [
              78.3,
              13.8
            ],
            [
              77.5,
              12.8
            ],
            [
              76.2,
              11.5
            ],
            [
              74.8,
              13.2
            ],
            [
              74.1,
              15
            ]
          ]
        ]
      }
    },
    {
      "type": "Feature",
      "properties": {
        "state_id": "IN-MH",
        "state_name": "Maharashtra",
        "centroid": [
          75.7139,
          19.7515
        ],
        "temperature": 40.2,
        "heat_index": 47.8,
        "grid_stress": 81,
        "compound_risk": 84,
        "vulnerability": 73
      },
      "geometry": {
        "type": "Polygon",
        "coordinates": [
          [
            [
              72.8,
              19
            ],
            [
              73.5,
              20.2
            ],
            [
              74.5,
              22
            ],
            [
              79.2,
              21.8
            ],
            [
              80.5,
              19.5
            ],
            [
              79,
              18
            ],
            [
              77.5,
              18.4
            ],
            [
              75.1,
              16.5
            ],
            [
              73.5,
              15.8
            ],
            [
              72.8,
              19
            ]
          ]
        ]
      }
    },
    {
      "type": "Feature",
      "properties": {
        "state_id": "IN-TG",
        "state_name": "Telangana",
        "centroid": [
          79.0193,
          18.1124
        ],
        "temperature": 41.5,
        "heat_index": 49.1,
        "grid_stress": 84,
        "compound_risk": 88,
        "vulnerability": 76
      },
      "geometry": {
        "type": "Polygon",
        "coordinates": [
          [
            [
              77.5,
              18.4
            ],
            [
              79,
              19.8
            ],
            [
              80.8,
              18.5
            ],
            [
              81.3,
              17.5
            ],
            [
              79.8,
              16.2
            ],
            [
              78.2,
              16.1
            ],
            [
              77.5,
              18.4
            ]
          ]
        ]
      }
    },
    {
      "type": "Feature",
      "properties": {
        "state_id": "IN-AP",
        "state_name": "Andhra Pradesh",
        "centroid": [
          79.74,
          15.91
        ],
        "temperature": 39.8,
        "heat_index": 46.5,
        "grid_stress": 74,
        "compound_risk": 78,
        "vulnerability": 69
      },
      "geometry": {
        "type": "Polygon",
        "coordinates": [
          [
            [
              77,
              14
            ],
            [
              78.2,
              16.1
            ],
            [
              79.8,
              16.2
            ],
            [
              81.3,
              17.5
            ],
            [
              84.5,
              19.1
            ],
            [
              83.2,
              17.6
            ],
            [
              80.3,
              13.5
            ],
            [
              78.3,
              13.8
            ],
            [
              77,
              14
            ]
          ]
        ]
      }
    },
    {
      "type": "Feature",
      "properties": {
        "state_id": "IN-GJ",
        "state_name": "Gujarat",
        "centroid": [
          71.1924,
          22.2587
        ],
        "temperature": 42.1,
        "heat_index": 48.9,
        "grid_stress": 78,
        "compound_risk": 83,
        "vulnerability": 67
      },
      "geometry": {
        "type": "Polygon",
        "coordinates": [
          [
            [
              68.8,
              23.8
            ],
            [
              71.5,
              24.7
            ],
            [
              74.3,
              23.2
            ],
            [
              73.5,
              20.2
            ],
            [
              72.8,
              20.8
            ],
            [
              70.5,
              20.8
            ],
            [
              69,
              22.5
            ],
            [
              68.8,
              23.8
            ]
          ]
        ]
      }
    },
    {
      "type": "Feature",
      "properties": {
        "state_id": "IN-RJ",
        "state_name": "Rajasthan",
        "centroid": [
          74.2179,
          27.0238
        ],
        "temperature": 44.5,
        "heat_index": 51.2,
        "grid_stress": 86,
        "compound_risk": 91,
        "vulnerability": 82
      },
      "geometry": {
        "type": "Polygon",
        "coordinates": [
          [
            [
              69.5,
              26.8
            ],
            [
              73.5,
              30.2
            ],
            [
              77.2,
              27.8
            ],
            [
              76.8,
              24.5
            ],
            [
              74.3,
              23.2
            ],
            [
              71.5,
              24.7
            ],
            [
              69.5,
              26.8
            ]
          ]
        ]
      }
    },
    {
      "type": "Feature",
      "properties": {
        "state_id": "IN-MP",
        "state_name": "Madhya Pradesh",
        "centroid": [
          78.6569,
          22.9734
        ],
        "temperature": 41.8,
        "heat_index": 48.4,
        "grid_stress": 80,
        "compound_risk": 85,
        "vulnerability": 78
      },
      "geometry": {
        "type": "Polygon",
        "coordinates": [
          [
            [
              74.1,
              22
            ],
            [
              77.2,
              26.8
            ],
            [
              80.5,
              26.5
            ],
            [
              82.8,
              24.2
            ],
            [
              81.5,
              21.8
            ],
            [
              77.8,
              21.3
            ],
            [
              74.1,
              22
            ]
          ]
        ]
      }
    },
    {
      "type": "Feature",
      "properties": {
        "state_id": "IN-UP",
        "state_name": "Uttar Pradesh",
        "centroid": [
          80.9462,
          26.8467
        ],
        "temperature": 43.2,
        "heat_index": 50.1,
        "grid_stress": 89,
        "compound_risk": 93,
        "vulnerability": 87
      },
      "geometry": {
        "type": "Polygon",
        "coordinates": [
          [
            [
              77.2,
              27.8
            ],
            [
              77.8,
              30.4
            ],
            [
              80.2,
              28.8
            ],
            [
              84.6,
              27.3
            ],
            [
              84.5,
              24.5
            ],
            [
              82.8,
              24.2
            ],
            [
              78.2,
              24.8
            ],
            [
              77.2,
              27.8
            ]
          ]
        ]
      }
    },
    {
      "type": "Feature",
      "properties": {
        "state_id": "IN-BR",
        "state_name": "Bihar",
        "centroid": [
          85.3131,
          25.0961
        ],
        "temperature": 41,
        "heat_index": 47.9,
        "grid_stress": 82,
        "compound_risk": 87,
        "vulnerability": 89
      },
      "geometry": {
        "type": "Polygon",
        "coordinates": [
          [
            [
              83.3,
              25.1
            ],
            [
              84.6,
              27.3
            ],
            [
              88.1,
              26.5
            ],
            [
              87.8,
              24.6
            ],
            [
              84.5,
              24.5
            ],
            [
              83.3,
              25.1
            ]
          ]
        ]
      }
    },
    {
      "type": "Feature",
      "properties": {
        "state_id": "IN-WB",
        "state_name": "West Bengal",
        "centroid": [
          87.855,
          22.9868
        ],
        "temperature": 39.1,
        "heat_index": 46.8,
        "grid_stress": 76,
        "compound_risk": 80,
        "vulnerability": 79
      },
      "geometry": {
        "type": "Polygon",
        "coordinates": [
          [
            [
              85.8,
              21.6
            ],
            [
              87.8,
              24.6
            ],
            [
              88.1,
              26.5
            ],
            [
              89.8,
              26.8
            ],
            [
              88.9,
              21.6
            ],
            [
              87.2,
              21.5
            ],
            [
              85.8,
              21.6
            ]
          ]
        ]
      }
    },
    {
      "type": "Feature",
      "properties": {
        "state_id": "IN-OD",
        "state_name": "Odisha",
        "centroid": [
          84.8034,
          20.9517
        ],
        "temperature": 41.2,
        "heat_index": 48,
        "grid_stress": 77,
        "compound_risk": 82,
        "vulnerability": 80
      },
      "geometry": {
        "type": "Polygon",
        "coordinates": [
          [
            [
              81.5,
              18.2
            ],
            [
              83.8,
              22.4
            ],
            [
              87.2,
              21.5
            ],
            [
              85.8,
              19.8
            ],
            [
              84.5,
              19.1
            ],
            [
              81.5,
              18.2
            ]
          ]
        ]
      }
    },
    {
      "type": "Feature",
      "properties": {
        "state_id": "IN-CT",
        "state_name": "Chhattisgarh",
        "centroid": [
          81.8661,
          21.2787
        ],
        "temperature": 40.5,
        "heat_index": 46.9,
        "grid_stress": 71,
        "compound_risk": 76,
        "vulnerability": 74
      },
      "geometry": {
        "type": "Polygon",
        "coordinates": [
          [
            [
              80.3,
              17.8
            ],
            [
              81.5,
              21.8
            ],
            [
              83.8,
              23.8
            ],
            [
              83.8,
              22.4
            ],
            [
              81.5,
              18.2
            ],
            [
              80.3,
              17.8
            ]
          ]
        ]
      }
    },
    {
      "type": "Feature",
      "properties": {
        "state_id": "IN-JH",
        "state_name": "Jharkhand",
        "centroid": [
          85.2799,
          23.6102
        ],
        "temperature": 40.8,
        "heat_index": 47.1,
        "grid_stress": 75,
        "compound_risk": 81,
        "vulnerability": 81
      },
      "geometry": {
        "type": "Polygon",
        "coordinates": [
          [
            [
              83.3,
              24.2
            ],
            [
              85.5,
              25.3
            ],
            [
              87.8,
              24.6
            ],
            [
              86.8,
              22
            ],
            [
              83.8,
              22.4
            ],
            [
              83.3,
              24.2
            ]
          ]
        ]
      }
    },
    {
      "type": "Feature",
      "properties": {
        "state_id": "IN-PB",
        "state_name": "Punjab",
        "centroid": [
          75.3412,
          31.1471
        ],
        "temperature": 42.5,
        "heat_index": 48.2,
        "grid_stress": 85,
        "compound_risk": 86,
        "vulnerability": 65
      },
      "geometry": {
        "type": "Polygon",
        "coordinates": [
          [
            [
              73.9,
              29.9
            ],
            [
              75.8,
              32.5
            ],
            [
              76.9,
              31.1
            ],
            [
              75.8,
              29.8
            ],
            [
              73.9,
              29.9
            ]
          ]
        ]
      }
    },
    {
      "type": "Feature",
      "properties": {
        "state_id": "IN-HR",
        "state_name": "Haryana",
        "centroid": [
          76.0856,
          29.0588
        ],
        "temperature": 43.1,
        "heat_index": 49.5,
        "grid_stress": 87,
        "compound_risk": 89,
        "vulnerability": 69
      },
      "geometry": {
        "type": "Polygon",
        "coordinates": [
          [
            [
              74.5,
              27.6
            ],
            [
              75.8,
              29.8
            ],
            [
              77.5,
              30.5
            ],
            [
              77.4,
              27.8
            ],
            [
              74.5,
              27.6
            ]
          ]
        ]
      }
    },
    {
      "type": "Feature",
      "properties": {
        "state_id": "IN-DL",
        "state_name": "Delhi",
        "centroid": [
          77.1025,
          28.7041
        ],
        "temperature": 43.8,
        "heat_index": 50.8,
        "grid_stress": 94,
        "compound_risk": 96,
        "vulnerability": 85
      },
      "geometry": {
        "type": "Polygon",
        "coordinates": [
          [
            [
              76.85,
              28.88
            ],
            [
              77.35,
              28.88
            ],
            [
              77.35,
              28.4
            ],
            [
              76.85,
              28.4
            ],
            [
              76.85,
              28.88
            ]
          ]
        ]
      }
    },
    {
      "type": "Feature",
      "properties": {
        "state_id": "IN-UT",
        "state_name": "Uttarakhand",
        "centroid": [
          79.0193,
          30.0668
        ],
        "temperature": 33.5,
        "heat_index": 36.2,
        "grid_stress": 48,
        "compound_risk": 45,
        "vulnerability": 40
      },
      "geometry": {
        "type": "Polygon",
        "coordinates": [
          [
            [
              77.6,
              30.3
            ],
            [
              79.2,
              31.4
            ],
            [
              81,
              30.2
            ],
            [
              79.8,
              28.8
            ],
            [
              77.6,
              30.3
            ]
          ]
        ]
      }
    },
    {
      "type": "Feature",
      "properties": {
        "state_id": "IN-HP",
        "state_name": "Himachal Pradesh",
        "centroid": [
          77.1734,
          31.1048
        ],
        "temperature": 31.2,
        "heat_index": 33.5,
        "grid_stress": 42,
        "compound_risk": 38,
        "vulnerability": 35
      },
      "geometry": {
        "type": "Polygon",
        "coordinates": [
          [
            [
              75.6,
              31.1
            ],
            [
              76.8,
              33.2
            ],
            [
              79,
              31.8
            ],
            [
              77.6,
              30.3
            ],
            [
              75.6,
              31.1
            ]
          ]
        ]
      }
    },
    {
      "type": "Feature",
      "properties": {
        "state_id": "IN-JK",
        "state_name": "Jammu & Kashmir",
        "centroid": [
          74.7973,
          33.7782
        ],
        "temperature": 29.5,
        "heat_index": 31,
        "grid_stress": 39,
        "compound_risk": 35,
        "vulnerability": 42
      },
      "geometry": {
        "type": "Polygon",
        "coordinates": [
          [
            [
              73.5,
              32.8
            ],
            [
              75.8,
              35.5
            ],
            [
              77.8,
              34.2
            ],
            [
              75.8,
              32.5
            ],
            [
              73.5,
              32.8
            ]
          ]
        ]
      }
    },
    {
      "type": "Feature",
      "properties": {
        "state_id": "IN-LA",
        "state_name": "Ladakh",
        "centroid": [
          77.5771,
          34.1526
        ],
        "temperature": 22,
        "heat_index": 22,
        "grid_stress": 25,
        "compound_risk": 24,
        "vulnerability": 30
      },
      "geometry": {
        "type": "Polygon",
        "coordinates": [
          [
            [
              75.8,
              35.5
            ],
            [
              78.8,
              35.8
            ],
            [
              79.5,
              32.8
            ],
            [
              76.8,
              33.2
            ],
            [
              75.8,
              35.5
            ]
          ]
        ]
      }
    },
    {
      "type": "Feature",
      "properties": {
        "state_id": "IN-AS",
        "state_name": "Assam",
        "centroid": [
          92.9376,
          26.2006
        ],
        "temperature": 35.8,
        "heat_index": 41.5,
        "grid_stress": 60,
        "compound_risk": 65,
        "vulnerability": 71
      },
      "geometry": {
        "type": "Polygon",
        "coordinates": [
          [
            [
              89.8,
              26.2
            ],
            [
              92.5,
              27.8
            ],
            [
              95.8,
              27.5
            ],
            [
              94.2,
              24.8
            ],
            [
              89.8,
              26.2
            ]
          ]
        ]
      }
    },
    {
      "type": "Feature",
      "properties": {
        "state_id": "IN-SK",
        "state_name": "Sikkim",
        "centroid": [
          88.5122,
          27.533
        ],
        "temperature": 24.5,
        "heat_index": 25.1,
        "grid_stress": 30,
        "compound_risk": 28,
        "vulnerability": 32
      },
      "geometry": {
        "type": "Polygon",
        "coordinates": [
          [
            [
              88,
              27.1
            ],
            [
              88.9,
              28.1
            ],
            [
              88.9,
              27.1
            ],
            [
              88,
              27.1
            ]
          ]
        ]
      }
    },
    {
      "type": "Feature",
      "properties": {
        "state_id": "IN-AR",
        "state_name": "Arunachal Pradesh",
        "centroid": [
          94.7278,
          28.218
        ],
        "temperature": 28.1,
        "heat_index": 30.2,
        "grid_stress": 35,
        "compound_risk": 33,
        "vulnerability": 38
      },
      "geometry": {
        "type": "Polygon",
        "coordinates": [
          [
            [
              91.6,
              26.8
            ],
            [
              96.5,
              29.5
            ],
            [
              97.2,
              27.8
            ],
            [
              93.5,
              26.9
            ],
            [
              91.6,
              26.8
            ]
          ]
        ]
      }
    },
    {
      "type": "Feature",
      "properties": {
        "state_id": "IN-GA",
        "state_name": "Goa",
        "centroid": [
          74.124,
          15.2993
        ],
        "temperature": 35.1,
        "heat_index": 41.2,
        "grid_stress": 52,
        "compound_risk": 54,
        "vulnerability": 41
      },
      "geometry": {
        "type": "Polygon",
        "coordinates": [
          [
            [
              73.7,
              15.8
            ],
            [
              74.3,
              15.8
            ],
            [
              74.3,
              14.9
            ],
            [
              73.7,
              14.9
            ],
            [
              73.7,
              15.8
            ]
          ]
        ]
      }
    }
  ]
}